start=new Date('2022-09-21T00:00:00.000Z').valueOf();
sats=[{"BSTAR":"-0.00001366100000","TLE_LINE2":"2 52360  53.2179 114.2652 0001935  54.6256 305.4917 15.08841629 24720","OBJECT_TYPE":"PAYLOAD","RA_OF_ASC_NODE":"114.2652","NORAD_CAT_ID":"52360","CLASSIFICATION_TYPE":"U","DECAY_DATE":null,"MEAN_ANOMALY":"305.4917","LAUNCH_DATE":"2022-04-29","EPHEMERIS_TYPE":"0","REV_AT_EPOCH":"2472","APOAPSIS":"541.079","RCS_SIZE":"LARGE","EPOCH":"2022-09-20T06:41:47.779872","MEAN_MOTION_DDOT":"0.0000000000000","TIME_SYSTEM":"UTC","INCLINATION":"53.2179","FILE":"3578736","MEAN_MOTION":"15.08841629","ELEMENT_SET_NO":"999","CENTER_NAME":"EARTH","OBJECT_NAME":"STARLINK-3824","ARG_OF_PERICENTER":"54.6256","TLE_LINE1":"1 52360U 22045AF  22263.27902523 -.00000506  00000-0 -13661-4 0  9998","OBJECT_ID":"2022-045AF","REF_FRAME":"TEME","SITE":"AFETR","PERIAPSIS":"538.402","GP_ID":"213072691","SEMIMAJOR_AXIS":"6917.875","MEAN_ELEMENT_THEORY":"SGP4","PERIOD":"95.437","ECCENTRICITY":"0.00019350","COUNTRY_CODE":"US","MEAN_MOTION_DOT":"-0.00000506"},{"BSTAR":"0.00006315400000","TLE_LINE2":"2 52361  53.2182 125.3778 0001901  62.3110 297.8075 15.08850576 24567","CLASSIFICATION_TYPE":"U","RA_OF_ASC_NODE":"125.3778","OBJECT_TYPE":"PAYLOAD","NORAD_CAT_ID":"52361","MEAN_ANOMALY":"297.8075","DECAY_DATE":null,"REV_AT_EPOCH":"2456","EPHEMERIS_TYPE":"0","LAUNCH_DATE":"2022-04-29","RCS_SIZE":"LARGE","TIME_SYSTEM":"UTC","APOAPSIS":"541.028","MEAN_MOTION_DDOT":"0.0000000000000","EPOCH":"2022-09-20T00:40:08.098464","INCLINATION":"53.2182","MEAN_MOTION":"15.08850576","FILE":"3578736","ELEMENT_SET_NO":"999","CENTER_NAME":"EARTH","TLE_LINE1":"1 52361U 22045AG  22263.02787151  .00000717  00000-0  63154-4 0  9994","OBJECT_ID":"2022-045AG","OBJECT_NAME":"STARLINK-3728","ARG_OF_PERICENTER":"62.3110","REF_FRAME":"TEME","SITE":"AFETR","PERIAPSIS":"538.398","GP_ID":"213073429","PERIOD":"95.437","MEAN_ELEMENT_THEORY":"SGP4","SEMIMAJOR_AXIS":"6917.848","COUNTRY_CODE":"US","ECCENTRICITY":"0.00019010","MEAN_MOTION_DOT":"0.00000717"},{"PERIAPSIS":"538.426","GP_ID":"213124680","PERIOD":"95.438","MEAN_ELEMENT_THEORY":"SGP4","SEMIMAJOR_AXIS":"6917.906","COUNTRY_CODE":"US","ECCENTRICITY":"0.00019440","MEAN_MOTION_DOT":"-0.00002107","CENTER_NAME":"EARTH","OBJECT_ID":"2022-045AH","TLE_LINE1":"1 52362U 22045AH  22263.87151168 -.00002107  00000-0 -11434-3 0  9991","OBJECT_NAME":"STARLINK-3848","ARG_OF_PERICENTER":"43.2691","REF_FRAME":"TEME","SITE":"AFETR","MEAN_MOTION_DDOT":"0.0000000000000","RCS_SIZE":"LARGE","APOAPSIS":"541.116","TIME_SYSTEM":"UTC","EPOCH":"2022-09-20T20:54:58.609152","INCLINATION":"53.2163","MEAN_MOTION":"15.08831625","FILE":"3578945","ELEMENT_SET_NO":"999","BSTAR":"-0.00011434000000","TLE_LINE2":"2 52362  53.2163 111.6026 0001944  43.2691 316.8454 15.08831625 24826","CLASSIFICATION_TYPE":"U","OBJECT_TYPE":"PAYLOAD","NORAD_CAT_ID":"52362","RA_OF_ASC_NODE":"111.6026","MEAN_ANOMALY":"316.8454","DECAY_DATE":null,"REV_AT_EPOCH":"2482","LAUNCH_DATE":"2022-04-29","EPHEMERIS_TYPE":"0"},{"RCS_SIZE":"LARGE","MEAN_MOTION_DDOT":"0.0000000000000","APOAPSIS":"540.950","EPOCH":"2022-09-20T16:28:41.140992","TIME_SYSTEM":"UTC","INCLINATION":"53.2182","FILE":"3578945","MEAN_MOTION":"15.08845493","ELEMENT_SET_NO":"999","BSTAR":"-0.00007654300000","TLE_LINE2":"2 52363  53.2182 122.4177 0001766  47.1160 312.9980 15.08845493 24662","NORAD_CAT_ID":"52363","OBJECT_TYPE":"PAYLOAD","RA_OF_ASC_NODE":"122.4177","CLASSIFICATION_TYPE":"U","DECAY_DATE":null,"MEAN_ANOMALY":"312.9980","EPHEMERIS_TYPE":"0","LAUNCH_DATE":"2022-04-29","REV_AT_EPOCH":"2466","PERIAPSIS":"538.507","GP_ID":"213125432","MEAN_ELEMENT_THEORY":"SGP4","SEMIMAJOR_AXIS":"6917.864","PERIOD":"95.437","ECCENTRICITY":"0.00017660","COUNTRY_CODE":"US","MEAN_MOTION_DOT":"-0.00001506","CENTER_NAME":"EARTH","OBJECT_NAME":"STARLINK-3830","ARG_OF_PERICENTER":"47.1160","OBJECT_ID":"2022-045AJ","TLE_LINE1":"1 52363U 22045AJ  22263.68658728 -.00001506  00000-0 -76543-4 0  9990","REF_FRAME":"TEME","SITE":"AFETR"},{"CENTER_NAME":"EARTH","TLE_LINE1":"1 52364U 22045AK  22263.66638397 -.00000930  00000-0 -40337-4 0  9991","OBJECT_ID":"2022-045AK","OBJECT_NAME":"STARLINK-3820","ARG_OF_PERICENTER":"46.7679","REF_FRAME":"TEME","SITE":"AFETR","PERIAPSIS":"538.408","GP_ID":"213123680","PERIOD":"95.438","MEAN_ELEMENT_THEORY":"SGP4","SEMIMAJOR_AXIS":"6917.881","COUNTRY_CODE":"US","ECCENTRICITY":"0.00019350","MEAN_MOTION_DOT":"-0.00000930","BSTAR":"-0.00004033700000","TLE_LINE2":"2 52364  53.2154 112.5141 0001935  46.7679 313.3474 15.08839689 24798","CLASSIFICATION_TYPE":"U","OBJECT_TYPE":"PAYLOAD","NORAD_CAT_ID":"52364","RA_OF_ASC_NODE":"112.5141","MEAN_ANOMALY":"313.3474","DECAY_DATE":null,"REV_AT_EPOCH":"2479","LAUNCH_DATE":"2022-04-29","EPHEMERIS_TYPE":"0","APOAPSIS":"541.085","RCS_SIZE":"LARGE","MEAN_MOTION_DDOT":"0.0000000000000","EPOCH":"2022-09-20T15:59:35.575008","TIME_SYSTEM":"UTC","INCLINATION":"53.2154","MEAN_MOTION":"15.08839689","FILE":"3578945","ELEMENT_SET_NO":"999"},{"PERIAPSIS":"538.439","GP_ID":"213073431","MEAN_ELEMENT_THEORY":"SGP4","SEMIMAJOR_AXIS":"6917.903","PERIOD":"95.438","ECCENTRICITY":"0.00019220","COUNTRY_CODE":"US","MEAN_MOTION_DOT":"0.00002855","CENTER_NAME":"EARTH","OBJECT_NAME":"STARLINK-3874","ARG_OF_PERICENTER":"55.0350","OBJECT_ID":"2022-045AL","TLE_LINE1":"1 52365U 22045AL  22263.28270805  .00002855  00000-0  19747-3 0  9992","REF_FRAME":"TEME","SITE":"AFETR","RCS_SIZE":"LARGE","EPOCH":"2022-09-20T06:47:05.975520","APOAPSIS":"541.098","MEAN_MOTION_DDOT":"0.0000000000000","TIME_SYSTEM":"UTC","INCLINATION":"53.2149","FILE":"3578736","MEAN_MOTION":"15.08832528","ELEMENT_SET_NO":"999","BSTAR":"0.00019747000000","TLE_LINE2":"2 52365  53.2149 114.2380 0001922  55.0350 305.0823 15.08832528 24737","OBJECT_TYPE":"PAYLOAD","RA_OF_ASC_NODE":"114.2380","NORAD_CAT_ID":"52365","CLASSIFICATION_TYPE":"U","DECAY_DATE":null,"MEAN_ANOMALY":"305.0823","LAUNCH_DATE":"2022-04-29","EPHEMERIS_TYPE":"0","REV_AT_EPOCH":"2473"},{"LAUNCH_DATE":"2022-04-29","EPHEMERIS_TYPE":"0","REV_AT_EPOCH":"2467","OBJECT_TYPE":"PAYLOAD","NORAD_CAT_ID":"52366","RA_OF_ASC_NODE":"116.1041","CLASSIFICATION_TYPE":"U","DECAY_DATE":null,"MEAN_ANOMALY":"312.8907","BSTAR":"0.00000089208000","TLE_LINE2":"2 52366  53.2163 116.1041 0001797  47.2236 312.8907 15.08842077 24677","FILE":"3578133","MEAN_MOTION":"15.08842077","ELEMENT_SET_NO":"999","INCLINATION":"53.2163","RCS_SIZE":"LARGE","EPOCH":"2022-09-19T20:48:16.831872","APOAPSIS":"540.982","MEAN_MOTION_DDOT":"0.0000000000000","TIME_SYSTEM":"UTC","SITE":"AFETR","REF_FRAME":"TEME","CENTER_NAME":"EARTH","ARG_OF_PERICENTER":"47.2236","OBJECT_NAME":"STARLINK-3808","OBJECT_ID":"2022-045AM","TLE_LINE1":"1 52366U 22045AM  22262.86686148 -.00000274  00000-0  89208-6 0  9993","ECCENTRICITY":"0.00017970","COUNTRY_CODE":"US","MEAN_MOTION_DOT":"-0.00000274","MEAN_ELEMENT_THEORY":"SGP4","SEMIMAJOR_AXIS":"6917.874","PERIOD":"95.437","GP_ID":"213009496","PERIAPSIS":"538.496"},{"GP_ID":"213125431","PERIAPSIS":"538.361","ECCENTRICITY":"0.00019720","COUNTRY_CODE":"US","MEAN_MOTION_DOT":"-0.00000297","SEMIMAJOR_AXIS":"6917.860","MEAN_ELEMENT_THEORY":"SGP4","PERIOD":"95.437","REF_FRAME":"TEME","CENTER_NAME":"EARTH","OBJECT_NAME":"STARLINK-3817","ARG_OF_PERICENTER":"42.0464","OBJECT_ID":"2022-045AN","TLE_LINE1":"1 52367U 22045AN  22263.66911217 -.00000297  00000-0 -56946-6 0  9990","SITE":"AFETR","RCS_SIZE":"LARGE","TIME_SYSTEM":"UTC","APOAPSIS":"541.089","MEAN_MOTION_DDOT":"0.0000000000000","EPOCH":"2022-09-20T16:03:31.291488","FILE":"3578945","MEAN_MOTION":"15.08846737","ELEMENT_SET_NO":"999","INCLINATION":"53.2150","OBJECT_TYPE":"PAYLOAD","NORAD_CAT_ID":"52367","RA_OF_ASC_NODE":"112.5041","CLASSIFICATION_TYPE":"U","DECAY_DATE":null,"MEAN_ANOMALY":"318.0679","BSTAR":"-0.00000056946000","TLE_LINE2":"2 52367  53.2150 112.5041 0001972  42.0464 318.0679 15.08846737 24799","LAUNCH_DATE":"2022-04-29","EPHEMERIS_TYPE":"0","REV_AT_EPOCH":"2479"},{"SITE":"AFETR","TLE_LINE1":"1 52368U 22045AP  22263.58446786  .00000233  00000-0  32709-4 0  9993","OBJECT_ID":"2022-045AP","ARG_OF_PERICENTER":"50.3895","OBJECT_NAME":"STARLINK-3834","CENTER_NAME":"EARTH","REF_FRAME":"TEME","PERIOD":"95.438","SEMIMAJOR_AXIS":"6917.883","MEAN_ELEMENT_THEORY":"SGP4","MEAN_MOTION_DOT":"0.00000233","COUNTRY_CODE":"US","ECCENTRICITY":"0.00015730","PERIAPSIS":"538.660","GP_ID":"213124180","REV_AT_EPOCH":"2477","LAUNCH_DATE":"2022-04-29","EPHEMERIS_TYPE":"0","TLE_LINE2":"2 52368  53.2161 112.8802 0001573  50.3895 309.7236 15.08839073 24776","BSTAR":"0.00003270900000","MEAN_ANOMALY":"309.7236","DECAY_DATE":null,"CLASSIFICATION_TYPE":"U","NORAD_CAT_ID":"52368","OBJECT_TYPE":"PAYLOAD","RA_OF_ASC_NODE":"112.8802","INCLINATION":"53.2161","ELEMENT_SET_NO":"999","MEAN_MOTION":"15.08839073","FILE":"3578945","MEAN_MOTION_DDOT":"0.0000000000000","RCS_SIZE":"LARGE","APOAPSIS":"540.836","TIME_SYSTEM":"UTC","EPOCH":"2022-09-20T14:01:38.023104"},{"PERIAPSIS":"538.502","GP_ID":"213124432","MEAN_ELEMENT_THEORY":"SGP4","SEMIMAJOR_AXIS":"6917.862","PERIOD":"95.437","MEAN_MOTION_DOT":"-0.00000115","ECCENTRICITY":"0.00017710","COUNTRY_CODE":"US","ARG_OF_PERICENTER":"58.2731","OBJECT_NAME":"STARLINK-3841","TLE_LINE1":"1 52369U 22045AQ  22263.66542837 -.00000115  00000-0  10851-4 0  9991","OBJECT_ID":"2022-045AQ","CENTER_NAME":"EARTH","REF_FRAME":"TEME","SITE":"AFETR","APOAPSIS":"540.952","RCS_SIZE":"LARGE","MEAN_MOTION_DDOT":"0.0000000000000","EPOCH":"2022-09-20T15:58:13.011168","TIME_SYSTEM":"UTC","INCLINATION":"53.2167","ELEMENT_SET_NO":"999","FILE":"3578945","MEAN_MOTION":"15.08846016","TLE_LINE2":"2 52369  53.2167 112.5195 0001771  58.2731 301.8434 15.08846016 24791","BSTAR":"0.00001085100000","DECAY_DATE":null,"MEAN_ANOMALY":"301.8434","RA_OF_ASC_NODE":"112.5195","OBJECT_TYPE":"PAYLOAD","NORAD_CAT_ID":"52369","CLASSIFICATION_TYPE":"U","LAUNCH_DATE":"2022-04-29","EPHEMERIS_TYPE":"0","REV_AT_EPOCH":"2479"}];
